STARLINK-30614          
1 58098C 23161B   26124.67062500 -.00033377  00000+0 -11251-2 0  1240
2 58098  53.1580 265.4406 0001305  86.2425 268.9937 15.30204650    18
STARLINK-30607          
1 58099C 23161C   26124.67756944 -.00008433  00000+0 -28425-3 0  1240
2 58099  53.1596 255.4469 0001312  82.4446 293.1676 15.30192843    13
STARLINK-30600          
1 58100C 23161D   26124.70465278 -.00005236  00000+0 -17649-3 0  1248
2 58100  53.1574 265.3766 0001179  80.6321  49.8118 15.30190939    16
STARLINK-30605          
1 58101C 23161E   26124.68451389 -.00041540  00000+0 -13999-2 0  1245
2 58101  53.1589 265.3304 0001299  83.1826  11.8569 15.30215920    19
STARLINK-30592          
1 58102C 23161F   26124.70187500 -.00028392  00000+0 -95696-3 0  1245
2 58102  53.1593 265.2150 0001287  87.0537 121.1355 15.30203976    18
STARLINK-30589          
1 58103C 23161G   26124.65673611 -.00038084  00000+0 -12836-2 0  1246
2 58103  53.1599 265.6616 0001332  88.9422   9.5926 15.30209285    12
STARLINK-30617          
1 58104C 23161H   26124.69006944 -.00018473  00000+0 -62259-3 0  1245
2 58104  53.1604 265.5433 0001311  87.1680 177.6437 15.30200950    14
STARLINK-30616          
1 58105C 23161J   26124.61715278 -.00040187  00000+0 -13546-2 0  1246
2 58105  53.1591 252.6512 0001295  89.0470  15.3672 15.30207935    13
STARLINK-30612          
1 58106C 23161K   26124.67409722 -.00001177  00000+0 -39683-4 0  1245
2 58106  53.1599 252.4802 0001249  78.0645 299.4876 15.30190617    12
STARLINK-30421          
1 58107C 23161L   26124.68520833 -.00037554  00000+0 -11096-2 0  1248
2 58107  53.1601 252.3218 0001300  79.4068  36.7295 15.34407467    14
STARLINK-30611          
1 58108C 23161M   26124.68729167 -.00017012  00000+0 -50265-3 0  1249
2 58108  53.1610 252.4519 0001335  84.0343 322.2318 15.34396285    10
STARLINK-30606          
1 58109C 23161N   26124.68659722 -.00023312  00000+0 -78578-3 0  1246
2 58109  53.1575 265.4323 0001206  78.8640 329.5053 15.30199843    19
STARLINK-30596          
1 58110C 23161P   26124.65743056 -.00047382  00000+0 -15967-2 0  1244
2 58110  53.1603 265.3177 0001434  80.0313 295.5249 15.30220883    12
STARLINK-30595          
1 58111C 23161Q   26124.70812500 -.00023633  00000+0 -79646-3 0  1240
2 58111  53.1577 265.4729 0001257  83.0333  14.1889 15.30205678    15
STARLINK-30593          
1 58112C 23161R   26124.71784722 -.00038463  00000+0 -12963-2 0  1241
2 58112  53.1572 265.3895 0001178  83.4059  84.8533 15.30210944    17
STARLINK-30353          
1 58113C 23161S   26124.67340278 -.00016567  00000+0 -55842-3 0  1246
2 58113  53.1586 265.7018 0001253  86.4899 144.4553 15.30196446    18
STARLINK-30572          
1 58114C 23161T   26124.70395833 -.00012431  00000+0 -41902-3 0  1246
2 58114  53.1571 265.4188 0001198  81.3937  27.7700 15.30194756    12
STARLINK-30580          
1 58115C 23161U   26124.67270833  .00010689  00000+0  35984-3 0  1249
2 58115  53.1600 265.2614 0001480  86.9920 355.3676 15.30224174    15
STARLINK-30493          
1 58116C 23161V   26124.68520833 -.00019000  00000+0 -64046-3 0  1248
2 58116  53.1581 265.6122 0001031  94.9209 218.5496 15.30196048    11
STARLINK-30601          
1 58117C 23161W   26124.66854167 -.00015790  00000+0 -53222-3 0  1243
2 58117  53.1595 265.7572 0001258  83.7463 102.9585 15.30196423    18
STARLINK-30795          
1 58118C 23162A   26124.65465278  .00035555  00000+0  12886-2 0  1244
2 58118  43.0026 176.0361 0001487 277.2198 343.1701 15.27540762    19
STARLINK-30765          
1 58119C 23162B   26124.66229167  .00041560  00000+0  15052-2 0  1242
2 58119  43.0009 176.2122 0001409 267.8350 295.4839 15.27560369    13
STARLINK-30768          
1 58120C 23162C   26124.70187500  .00122660  00000+0  44513-2 0  1248
2 58120  43.0017 175.8028 0001506 269.1967 236.9815 15.27455137    11
STARLINK-30799          
1 58121C 23162D   26124.67548611  .00033058  00000+0  11962-2 0  1243
2 58121  42.9997 176.1886 0001521 284.0934 330.7370 15.27594050    17
STARLINK-30759          
1 58122C 23162E   26124.67826389  .00018333  00000+0  66390-3 0  1240
2 58122  43.0008 176.1178 0001521 272.0949  26.2525 15.27574818    19
STARLINK-30781          
1 58123C 23162F   26124.65604167  .00049948  00000+0  18094-2 0  1240
2 58123  42.9990 176.2961 0001453 284.1953 230.5406 15.27548821    15
STARLINK-30754          
1 58124C 23162G   26124.66368056  .00044107  00000+0  15978-2 0  1246
2 58124  42.9990 176.3053 0001501 276.3936 252.1913 15.27551802    13
STARLINK-30766          
1 58125C 23162H   26124.70118056 -.00004037  00000+0 -14620-3 0  1249
2 58125  43.0025 172.9944 0001546 269.1901 342.8170 15.27587414    17
STARLINK-30767          
1 58126C 23162J   26124.66576389  .00033365  00000+0  12084-2 0  1247
2 58126  43.0020 173.1549 0001521 271.1314 160.0326 15.27565036    10
STARLINK-30790          
1 58127C 23162K   26124.66090278  .00062272  00000+0  30591-2 0  1248
2 58127  42.9969 177.4024 0014589  36.5722  42.5171 15.17152231    10
STARLINK-30787          
1 58128C 23162L   26124.64840278  .00040133  00000+0  14534-2 0  1241
2 58128  43.0019 173.2698 0001525 271.4367  57.0717 15.27563812    10
STARLINK-30756          
1 58129C 23162M   26124.70673611 -.00013521  00000+0 -48951-3 0  1248
2 58129  42.9982 176.1132 0001506 277.4925 106.8724 15.27599188    14
STARLINK-30783          
1 58130C 23162N   26124.69493056  .00012817  00000+0  46429-3 0  1244
2 58130  43.0023 172.9226 0001486 275.8198 344.2586 15.27567914    19
STARLINK-30757          
1 58131C 23162P   26124.67479167  .00030032  00000+0  10879-2 0  1248
2 58131  43.0023 172.9884 0001375 281.2572 249.1677 15.27561016    15
STARLINK-30770          
1 58132C 23162Q   26124.64076389  .00053819  00000+0  19477-2 0  1246
2 58132  42.9998 176.5637 0001310 274.5651  71.2605 15.27579973    19
STARLINK-30758          
1 58133C 23162R   26124.69909722 -.00004117  00000+0 -14908-3 0  1242
2 58133  43.0025 172.9147 0001326 269.6756   6.2187 15.27591860    19
STARLINK-30761          
1 58134C 23162S   26124.65048611  .00048528  00000+0  17580-2 0  1240
2 58134  43.0005 176.5625 0001474 279.7847  98.3292 15.27548921    15
STARLINK-30772          
1 58135C 23162T   26124.68868056  .00022895  00000+0  82909-3 0  1244
2 58135  42.9986 176.1508 0001626 271.9026  41.3329 15.27572754    10
STARLINK-30776          
1 58136C 23162U   26124.65881944  .00099930  00000+0  28512-2 0  1246
2 58136  42.9955 174.8319 0007814  66.6779 324.0069 15.35132363    10
STARLINK-30782          
1 58137C 23162V   26124.71576389  .00006263  00000+0  22682-3 0  1248
2 58137  42.9993 176.2370 0001570 271.8962  91.4157 15.27578707    13
STARLINK-30769          
1 58138C 23162W   26124.64284722  .00047139  00000+0  17065-2 0  1243
2 58138  42.9997 176.1900 0001758 267.3228 245.5376 15.27571202    17
STARLINK-30775          
1 58139C 23162X   26124.70951389  .00016503  00000+0  59757-3 0  1247
2 58139  43.0019 175.7608 0001637 275.4494 265.7393 15.27580141    11
STARLINK-30780          
1 58140C 23162Y   26124.67409722  .00030443  00000+0  11026-2 0  1249
2 58140  42.9992 176.0961 0001509 278.1977  11.3874 15.27564361    16
STARLINK-30802          
1 58150C 23166A   26124.71784722 -.00051997  00000+0 -16723-2 0  1243
2 58150  53.1596 319.5819 0001100  87.9739 293.9806 15.31723960    16
STARLINK-30834          
1 58151C 23166B   26124.69701389 -.00030057  00000+0 -10128-2 0  1246
2 58151  53.1604 319.6042 0001237  81.4116 118.7407 15.30215300    19
STARLINK-30833          
1 58152C 23166C   26124.70118056 -.00046905  00000+0 -15807-2 0  1240
2 58152  53.1597 319.7221 0001187  89.8353 168.0233 15.30218831    17
STARLINK-30831          
1 58153C 23166D   26124.64840278 -.00013951  00000+0 -47005-3 0  1243
2 58153  53.1583 319.8000 0001159  92.5919 327.3977 15.30209878    13
STARLINK-30797          
1 58154C 23166E   26124.66993056 -.00074555  00000+0 -25100-2 0  1247
2 58154  53.1606 319.7577 0001238  92.6736 300.7784 15.30264443    14
STARLINK-30804          
1 58155C 23166F   26124.68381944 -.00031569  00000+0 -10639-2 0  1246
2 58155  53.1593 319.7469 0001222  91.6029 105.4439 15.30210254    15
STARLINK-30784          
1 58156C 23166G   26124.67687500 -.00036615  00000+0 -12338-2 0  1248
2 58156  53.1603 319.8723 0001288  93.0809  13.3488 15.30216625    15
STARLINK-30803          
1 58157C 23166H   26124.68381944  .00010156  00000+0  32709-3 0  1248
2 58157  53.1587 319.4849 0001473  93.2328 229.7163 15.31646877    16
STARLINK-30829          
1 58158C 23166J   26124.66229167 -.00036817  00000+0 -12405-2 0  1249
2 58158  53.1593 319.8805 0001264  88.6007 332.3393 15.30220132    17
STARLINK-30788          
1 58159C 23166K   26124.68104167 -.00037573  00000+0 -12083-2 0  1246
2 58159  53.1590 319.7163 0001086  83.8538 120.7801 15.31719082    10
STARLINK-30779          
1 58160C 23166L   26124.69423611 -.00022439  00000+0 -72160-3 0  1245
2 58160  53.1590 319.6044 0000707  87.6082 215.5673 15.31713481    11
STARLINK-30773          
1 58161C 23166M   26124.64770833 -.00014149  00000+0 -47679-3 0  1248
2 58161  53.1585 319.6458 0001178  91.7631  34.2288 15.30203550    12
STARLINK-30816          
1 58162C 23166N   26124.64215278 -.00010281  00000+0 -34645-3 0  1248
2 58162  53.1590 319.6550 0001218  91.5064  21.3010 15.30202649    13
STARLINK-30763          
1 58163C 23166P   26124.70395833 -.00049766  00000+0 -16773-2 0  1243
2 58163  53.1603 306.8594 0001188  86.4791 329.1431 15.30216257    17
STARLINK-30815          
1 58164C 23166Q   26124.71298611 -.00039719  00000+0 -12771-2 0  1242
2 58164  53.1594 319.4189 0000965  81.1382  16.9874 15.31727050    18
STARLINK-30814          
1 58165C 23166R   26124.70465278 -.00041762  00000+0 -14072-2 0  1244
2 58165  53.1608 319.1496 0001200  90.5379 117.2600 15.30219725    12
